#cP2024  2  6 18  0  0.00000000     577 d+D   IGS20 EXT AIUB
## 2300 237600.00000000   300.00000000 60346 0.7500000000000
+   78   G01G02G03G04G05G06G07G08G09G10G11G12G13G14G15G16G17
+        G18G19G20G21G22G23G24G25G26G27G28G29G30G31G32R01R02
+        R03R04R05R07R08R09R11R12R13R14R15R16R17R18R19R20R21
+        R22R24E02E03E04E05E07E08E09E10E11E12E13E14E15E18E19
+        E21E24E25E26E27E30E31E33E34E36  0  0  0  0  0  0  0
++         6  7  6  6  7  6  7  6  6  6  7  7  7  6  7  7  7
++         7  7  7  7  7  7  6  6  7  6  6  8  6  7  6  9  7
++         8  8  8  8  8  7  6  6  7  7  7  6  8  7  8 10  8
++         9  8  5  7  7  7  6  7  7  7  6  6  6  7  6  7  6
++         6  6  5  7  5  6  5  7  6  6  0  0  0  0  0  0  0
%c M  cc GPS ccc cccc cccc cccc cccc ccccc ccccc ccccc ccccc
%c cc cc ccc ccc cccc cccc cccc cccc ccccc ccccc ccccc ccccc
%f  1.2500000  1.025000000  0.00000000000  0.000000000000000
%f  0.0000000  0.000000000  0.00000000000  0.000000000000000
%i    0    0    0    0      0      0      0      0         0
%i    0    0    0    0      0      0      0      0         0
/* Center for Orbit Determination in Europe (CODE)          
/* Ultra-rapid GRE orbits starting year-day 24037 18 hour   
/* Observed/predicted: 24/24 hours (data used up to 038R)   
/* PCV:IGS20      OL/AL:FES2014b NONE     YN ORB:CoN CLK:BRD
*  2024  2  8  1  0  0.00000000
PG01  23268.724799  12799.345021   2818.191866    168.696037               P   P
PG02  21897.109777  14467.133944  -4395.087222   -488.870419               P   P
PG03  11794.046542  15024.075405  18366.306802    178.898496               P   P
PG04  17872.293107   5725.757512  18861.105266    286.187345               P   P
PG05  -6940.062081 -23849.418538  -9448.517695   -160.966991               P   P
PG06   7833.728657 -12333.833220  22248.314246    415.649103               P   P
PG07  22777.965037   2914.767331 -13253.667828    -56.635850               P   P
PG08  10614.172918  11493.228299 -21591.116889   -165.951118               P   P
PG09  24006.354429  -5821.818586   9757.422322     84.801535               P   P
PG10 -10752.602059  18492.420382 -15322.560355    -72.443452               P   P
PG11  -4027.888707 -18435.658518  18734.592682   -568.223893               P   P
PG12 -10894.434953 -16108.493983  17836.198349   -475.797353               P   P
PG13     59.340837 -15736.793552 -21566.099201    623.473539               P   P
PG14  13373.236375 -14833.502536 -17394.503352    319.899249               P   P
PG15 -11851.277344 -11013.891866 -21569.336321    125.414603               P   P
PG16     65.717671  25995.733409  -4396.777611   -367.462912               P   P
PG17  22827.377745 -13349.392914   3665.522645    717.672007               P   P
PG18 -21856.584628  -1835.319238 -15093.420050   -550.642883               P   P
PG19  17484.004661 -15825.641013  11665.802144    437.591766               P   P
PG20   -602.215503 -26264.942022   4535.301919    388.335911               P   P
PG21  19089.391748  16586.919745  -9101.778955    135.718968               P   P
PG22  10430.212364 -21667.913604 -11163.503218     34.875525               P   P
PG23 -14457.283051   5894.709642 -21435.681021    151.526005               P   P
PG24 -20299.716762 -16031.610471  -7328.138496   -428.018014               P   P
PG25 -15054.689417  -4248.005324  21153.320938    487.900188               P   P
PG26  -4244.564747  24932.309087   7318.914682    192.528398               P   P
PG27  -2889.484038  17406.768938 -19990.698939     -2.052093               P   P
PG28 -10501.066400  11347.530416  21572.858581   -123.730677               P   P
PG29 -24068.845451   2531.795927  11008.512247   -607.381404               P   P
PG30  16341.115465  -6961.674570 -19695.551116   -435.440817               P   P
PG31  -1368.290176  16434.522231  20524.817960   -227.691677               P   P
PG32 -20148.917746  16059.542865   6172.592287   -610.372932               P   P
PR01 -11094.693141  -3333.832040 -22721.716029     76.579017               P   P
PR02 -18101.332766  11826.559519 -13428.284299    -22.455291               P   P
PR03 -14697.791884  20506.604566   3582.910546     94.098970               P   P
PR04  -3671.060067  17505.777458  18211.510330    222.470131               P   P
PR05   9528.117778   5272.162733  23083.065091    126.549043               P   P
PR07  14405.921260 -20632.464823  -4300.835966     75.329546               P   P
PR08   3380.201146 -17507.442320 -18194.318376    -74.285418               P   P
PR09  11745.663046   -959.694347 -22616.184991    168.800742               P   P
PR11  -6746.266199 -24040.991245  -5172.867910     35.066638               P   P
PR12 -13473.334658 -16785.739557  13718.805540     36.487356               P   P
PR13 -12234.463497  -1757.786732  22292.345767    -44.126995               P   P
PR14  -2898.745144  17320.082292  18511.492051     26.019290               P   P
PR15   7302.601700  24161.956377   3703.172304     82.402652               P   P
PR16  13442.189172  16988.447886 -13491.848972     23.100525               P   P
PR17 -11062.289932   8061.410497 -21520.443573     59.382314               P   P
PR18   6854.896348  11266.047174 -21828.011154    126.252628               P   P
PR19  19955.858555   9938.042016 -12396.098215   -264.958905               P   P
PR20  24058.330364   1372.440167   8449.254326   -107.930973               P   P
PR21  10755.246519  -8024.592545  21691.753119    -75.208412               P   P
PR22  -7489.847622 -11886.134876  21314.981107    107.025674               P   P
PR24 -23913.696273     64.668814  -8868.796741    -43.008561               P   P
PE02 -15327.768319 -10689.767275  22949.019820    101.586782               P   P
PE03 -23267.618770  -2151.669572 -18176.572956    -92.358168               P   P
PE04  26608.545202 -12907.253399   1294.493984   -322.139630               P   P
PE05  -6404.964618 -15750.124066 -24225.328651   4717.935838               P   P
PE07 -14696.708646  20211.605846  15875.222378   -102.602221               P   P
PE08 -26761.831642  12505.197721  -1958.740604   -220.417369               P   P
PE09  14837.113934 -20118.182071 -15842.046967   -328.123992               P   P
PE10  13648.505351  -9869.063000  24340.394939   -600.250223               P   P
PE11   3153.175436 -16605.889892  24292.379690   3258.133888               P   P
PE12  21051.976179  -2449.223616  20676.053800   -896.844981               P   P
PE13  -3787.516511  16204.028853 -24472.429437    -20.118604               P   P
PE14  -9639.347689 -13485.994666  19311.766845 999999.999999               P   P
PE15 -21341.053439   1977.378223 -20399.538005    -84.569596               P   P
PE18    486.584118  20964.758542 -22855.852220 999999.999999               P   P
PE19  21816.590045   3957.387780  19621.232808   -657.743417               P   P
PE21   6466.431192  26655.784497 -11126.157366   -577.892971               P   P
PE24   6985.128542 -27621.256213  -8102.429170   -586.013170               P   P
PE25  -6207.763919 -26869.525243  10766.266966      0.586362               P   P
PE26  16167.141285  20744.162633 -13578.475157    362.365163               P   P
PE27  -6610.474987  27791.427522   7716.700739   -269.186047               P   P
PE30 -15771.271197  12217.001456  21843.605915   -889.012589               P   P
PE31  15634.849655 -12543.444645 -21784.918819    -15.501796               P   P
PE33  26032.241923  13541.769969   3902.743610      7.249470               P   P
PE34 -26148.395941 -13144.860098  -4438.706270    -93.406892               P   P
PE36 -15657.602970 -20721.715997  14194.015622   -182.851309               P   P
EOF
